TISAT 1                 
1 36799U 10035E   26068.75703561  .00024554  00000+0  91005-3 0  9996
2 36799  98.0645   6.8512 0001343 159.3030 200.8262 15.27628633852505
STARLINK-35990          
1 66792U 25278B   26068.50555682  .00023226  00000+0  85071-3 0  9990
2 66792  42.9974 115.1677 0000993 201.3802 158.7008 15.27586169 15186
